CELTEE 1                
1 41850U 16067C   18049.76532740  .00000246  00000-0  26805-4 0  9991
2 41850  97.9284 136.4125 0008783 190.1623 169.9422 14.96741999 69387
OPTICUBE 04             
1 41851U 16067D   18050.18791341  .00000701  00000-0  66797-4 0  9994
2 41851  97.9290 136.7854 0008676 187.5198 172.5895 14.96623177 69443
AEROCUBE 8D             
1 41852U 16067E   18050.20967509 -.00000206  00000-0 -12795-4 0  9990
2 41852  97.9304 136.6667 0009352 189.9542 170.1495 14.96416240 69432
AEROCUBE 8C             
1 41853U 16067F   18049.81978570 -.00000095  00000-0 -30639-5 0  9990
2 41853  97.9299 136.2423 0009784 193.5383 166.5577 14.96376954 69375
PROMETHEUS 2-1          
1 41854U 16067G   18050.30095974  .00000562  00000-0  54902-4 0  9990
2 41854  97.9301 136.7142 0010377 191.1697 168.9295 14.96437857 69446
PROMETHEUS 2-3          
1 41855U 16067H   18049.90219059  .00000633  00000-0  61097-4 0  9999
2 41855  97.9303 136.3119 0010524 192.8499 167.2455 14.96434683 69388
STARS-C                 
1 41895U 98067KR  18049.88290215  .00575836  16578-3  88418-3 0  9990
2 41895  51.6271 206.0684 0006156 300.4960  59.5443 16.03692935 66856
ITF-2                   
1 41932U 98067KU  18049.73772233  .00027243  00000-0  23184-3 0  9994
2 41932  51.6365 227.9834 0004092 117.0597 243.0818 15.69365024 62125
WASEDA-SAT3             
1 41933U 98067KV  18049.73599923  .00038845  00000-0  29044-3 0  9999
2 41933  51.6334 224.8857 0003515 124.2590 235.8741 15.72285215 62160
AOBA-VELOX 3            
1 41935U 98067KX  18049.89949340  .00036837  00000-0  28846-3 0  9998
2 41935  51.6352 225.2837 0003312 123.9673 236.1640 15.71211766 62271
INS-1B                  
1 41954U 17008G   18049.91297784  .00001496  00000-0  67247-4 0  9998
2 41954  97.4615 114.8049 0010760  54.7943 305.4300 15.22657670 56007
BGUSAT                  
1 41999U 17008BD  18049.93530633  .00002813  00000-0  11887-3 0  9994
2 41999  97.4651 115.5517 0010087  72.0803 288.1533 15.24035795 55413
DIDO-2                  
1 42000U 17008BE  18049.93839196  .00001123  00000-0  50826-4 0  9994
2 42000  97.4634 115.1918 0010295  71.3672 288.8681 15.22937376 55400
PEASSS                  
1 42015U 17008BV  18050.43727029  .00001403  00000-0  61424-4 0  9995
2 42015  97.4628 116.0106 0008213  77.5164 282.6992 15.23688148 55980
AL-FARABI 1             
1 42016U 17008BW  18049.93348843  .00001737  00000-0  74605-4 0  9997
2 42016  97.4635 115.6289 0008123  79.4845 280.7307 15.24023026 56038
NAYIF-1 (EO-88)         
1 42017U 17008BX  18049.92949719  .00001737  00000-0  74546-4 0  9990
2 42017  97.4633 115.6303 0008096  79.6769 280.5381 15.24043906 56051
HAVELSAT                
1 42700U 98067LH  18050.50757509  .00025997  00000-0  26141-3 0  9994
2 42700  51.6362 233.8609 0004981 168.2998 191.8114 15.65253572 43557
COLUMBIA                
1 42702U 98067LK  18050.45629380  .00480191  10560-3  11338-2 0  9992
2 42702  51.6254 217.5242 0005680 274.7098  85.3262 15.96203964 43681
SGSAT                   
1 42703U 98067LL  18049.96692026  .00107246  00000-0  61809-3 0  9995
2 42703  51.6338 227.8899 0001569 179.3768 180.7235 15.77858914 43492
CXBN-2                  
1 42704U 98067LM  18050.49941095  .00025710  00000-0  26269-3 0  9995
2 42704  51.6366 234.5645 0001975 115.7585 244.3614 15.64866324 43465
ICECUBE                 
1 42705U 98067LN  18050.51751971  .00031305  00000-0  27526-3 0  9995
2 42705  51.6403 231.7300 0001803 110.9849 249.1341 15.68493617 43561
PHOENIX                 
1 42706U 98067LP  18050.49355513  .00022217  00000-0  23166-3 0  9993
2 42706  51.6359 234.5203 0001428 131.0231 229.0887 15.64445009 43455
X-CUBESAT               
1 42707U 98067LQ  18050.51408129  .00027793  00000-0  27762-3 0  9999
2 42707  51.6339 233.8761 0001465 139.5308 220.5797 15.65391233 43450
QBEE50-LTU-OC           
1 42708U 98067LR  18049.83849949  .00023763  00000-0  24249-3 0  9992
2 42708  51.6358 237.6310 0001539 134.0860 226.0262 15.64947659 43309
ALTAIR PATHFINDER       
1 42711U 98067LS  18049.76738070  .00013202  00000-0  15859-3 0  9994
2 42711  51.6358 241.6663 0004227 101.5934 258.5534 15.61227062 42955
SHARC                   
1 42712U 98067LT  18049.77110458  .00010941  00000-0  13751-3 0  9996
2 42712  51.6377 242.4731 0002612 109.3013 250.8263 15.60250235 43189
ZA-AEROSAT              
1 42713U 98067LU  18050.49621112  .00020972  00000-0  22855-3 0  9992
2 42713  51.6351 236.0314 0002282 102.3817 257.7433 15.63356395 43098
LINK                    
1 42714U 98067LV  18050.48130707  .00043214  00000-0  37683-3 0  9996
2 42714  51.6325 232.1333 0001788 117.8214 242.2964 15.68538500 43251
CSUNSAT 1               
1 42715U 98067LW  18050.48240483  .00021744  00000-0  23427-3 0  9995
2 42715  51.6364 235.9468 0003997  97.4922 262.6527 15.63620362 43094
SPACECUBE               
1 42717U 98067LY  18050.49901414  .00025685  00000-0  26219-3 0  9996
2 42717  51.6351 234.5438 0003657 168.8518 191.2559 15.64886486 42487
HOOPOE                  
1 42718U 98067LZ  18050.03179310  .00030088  00000-0  29220-3 0  9997
2 42718  51.6356 235.9264 0003511 167.1105 192.9981 15.66049937 42423
CHALLENGER              
1 42721U 98067MA  18050.48105192  .00057305  00000-0  45517-3 0  9995
2 42721  51.6338 230.6303 0005166 159.6546 200.4659 15.70664940 42234
NJUST-1                 
1 42722U 98067MB  18050.11307445  .00018540  00000-0  20796-3 0  9991
2 42722  51.6361 238.7277 0006406 148.3191 211.8190 15.62690226 42096
UNSW-ECO                
1 42723U 98067MC  18050.51035144  .00033753  00000-0  32426-3 0  9996
2 42723  51.6370 233.8851 0005637 152.5892 207.5402 15.66248746 42178
LILACSAT-1              
1 42725U 98067ME  18050.10302705  .00021391  00000-0  22752-3 0  9999
2 42725  51.6360 237.9120 0005342 151.4241 208.7047 15.63953958 42018
NSIGHT-1                
1 42726U 98067MF  18050.03840861  .00008775  00000-0  11472-3 0  9990
2 42726  51.6377 242.0026 0006111 149.4566 210.6784 15.59494614 41957
SNUSAT-1                
1 42727U 98067MG  18049.78822907  .00022562  00000-0  24039-3 0  9995
2 42727  51.6344 239.5294 0006808 113.9493 246.2215 15.63864596 41924
I-INSPIRE II            
1 42731U 98067ML  18050.03144354  .00036455  00000-0  34442-3 0  9998
2 42731  51.6347 235.8975 0005571 104.8737 255.2876 15.66626668 41880
POLYITAN-2-SAU          
1 42732U 98067MM  18050.50635297  .00027578  00000-0  27733-3 0  9993
2 42732  51.6356 234.5823 0005874 103.8231 256.3418 15.65211493 41949
SNUSAT-1B               
1 42733U 98067MN  18050.50639977  .00024978  00000-0  26015-3 0  9996
2 42733  51.6358 235.3392 0006112 106.2832 253.8835 15.64382141 41934
EXALTA-1                
1 42734U 98067MP  18050.48309983  .00035682  00000-0  33591-3 0  9996
2 42734  51.6339 233.6602 0006793 130.1736 229.9856 15.66717532 41905
BEEAGLESAT              
1 42736U 98067MR  18050.10998159  .00022520  00000-0  24162-3 0  9997
2 42736  51.6348 237.9408 0006681 145.6851 214.4576 15.63688462 41929
ATLANTIS                
1 42737U 98067MS  18049.92106212  .00202790  00000-0  82178-3 0  9997
2 42737  51.6253 225.2450 0003359 206.3692 153.7141 15.85153668 41965
UCLSAT                  
1 42765U 17036A   18049.84363389  .00001465  00000-0  68033-4 0  9997
2 42765  97.4173 111.5234 0013300 127.1505 233.0948 15.21518027 36710
LITUANICASAT-2          
1 42768U 17036D   18050.38250101  .00002788  00000-0  12892-3 0  9998
2 42768  97.4178 111.7352 0017596 117.1827 243.1205 15.20851170 36657
AALTO-1                 
1 42775U 17036L   18050.11239148  .00000946  00000-0  46296-4 0  9995
2 42775  97.4169 111.4711 0015840 115.3703 244.9174 15.20522135 36553
URSA MAIOR              
1 42776U 17036M   18050.10445224  .00000982  00000-0  47845-4 0  9990
2 42776  97.4174 111.4922 0015705 115.6531 244.6329 15.20587344 36558
COMPASS 2               
1 42777U 17036N   18049.76475835  .00001913  00000-0  88383-4 0  9999
2 42777  97.4191 111.3707 0014644 120.2655 240.0032 15.21305563 36506
DIAMOND RED             
1 42783U 17036U   18050.14317246  .00001149  00000-0  54519-4 0  9996
2 42783  97.4173 111.7378 0013925 126.1985 234.0541 15.21193761 36562
PEGASUS                 
1 42784U 17036V   18049.80120214  .00001323  00000-0  62023-4 0  9998
2 42784  97.4175 111.4353 0013839 127.4127 232.8370 15.21348537 36515
DIAMOND GREEN           
1 42785U 17036W   18050.14231257  .00001166  00000-0  55297-4 0  9998
2 42785  97.4176 111.7460 0013813 126.7009 233.5498 15.21196603 36550
DIAMOND BLUE            
1 42786U 17036X   18050.40449423  .00001219  00000-0  57650-4 0  9998
2 42786  97.4175 112.0051 0013661 126.1171 234.1332 15.21194155 36593
NUDTSAT                 
1 42787U 17036Y   18049.82461927  .00001962  00000-0  89363-4 0  9997
2 42787  97.4180 111.5602 0013416 127.3648 232.8812 15.21786637 36361
SUCHAI                  
1 42788U 17036Z   18049.84302296  .00001564  00000-0  72317-4 0  9992
2 42788  97.4176 111.5301 0013471 127.3035 232.9431 15.21564143 36593
SKCUBE                  
1 42789U 17036AA  18049.84047503  .00001451  00000-0  67363-4 0  9990
2 42789  97.4174 111.5298 0013290 127.1221 233.1232 15.21550988 36517
VZLUSAT-1               
1 42790U 17036AB  18049.81593042  .00001912  00000-0  87121-4 0  9999
2 42790  97.4177 111.5598 0012986 127.5906 232.6511 15.21816611 36512
ROBUSTA-1B              
1 42792U 17036AD  18050.14872389  .00001486  00000-0  68631-4 0  9994
2 42792  97.4172 111.8735 0012873 127.1037 233.1378 15.21688766 36572
CICERO 6                
1 42793U 17036AE  18049.74043201  .00000937  00000-0  44502-4 0  9993
2 42793  97.4168 111.4953 0011944 128.7867 231.4438 15.21642490 36585
D-SAT                   
1 42794U 17036AF  18050.11648559  .00000293  00000-0  31421-4 0  9995
2 42794  97.6089 109.1334 0126149 315.5520  43.5629 14.90783236 36137
